{
  "norad_id": 58226,
  "name": "STARLINK-30865",
  "history": [
    {
      "epoch": "2026-03-28T15:53:26.042208",
      "apogee_km": 486.24778448124016,
      "perigee_km": 484.8629659076214,
      "latitude_deg": 0.8534833933507533,
      "longitude_deg": 66.16226912010461,
      "semi_major_axis_km": 6863.6923751944305,
      "eccentricity": 0.00010088,
      "inclination_deg": 43.0019,
      "raan_deg": 75.802,
      "arg_perigee_deg": 273.1023,
      "mean_anomaly_deg": 86.9713,
      "mean_motion_rev_day": 15.26743382
    }
  ]
}